ORBCOMM FM115           
1 41186U 15081H   24253.44115117  .00003566  00000+0  75146-3 0  9990
2 41186  46.9977 293.6469 0001440 260.6077  99.4647 14.61185414466695
ORBCOMM FM108           
1 41187U 15081J   24253.56046977  .00005010  00000+0  11382-2 0  9998
2 41187  47.0054 351.2656 0001225 118.4331 241.6677 14.57065141465936
ORBCOMM FM117           
1 41188U 15081K   24253.52669613  .00004953  00000+0  11262-2 0  9995
2 41188  47.0015 350.2813 0002010 130.3078 229.7983 14.57048995465892
